STARLINK-36110          
1 66945U 25286W   25347.58336806 -.01286195  50809-3 -29040-2 0  9999
2 66945  53.1565  46.3890 0000925  60.8658 247.8395 15.96991445  2122
STARLINK-36115          
1 66946U 25286X   25347.58336806 -.01292619  51316-3 -29056-2 0  9999
2 66946  53.1566  46.3859 0000881  57.4523 252.6435 15.97073319  2124
STARLINK-36089          
1 66947U 25286Y   25347.58336806 -.01297534  51762-3 -28898-2 0  9999
2 66947  53.1565  46.3799 0000989  58.2349 254.8364 15.97241517  2123
STARLINK-36116          
1 66948U 25286Z   25347.58336806 -.01292509  51359-3 -28901-2 0  9994
2 66948  53.1566  46.3824 0000813  63.5704 248.2177 15.97168391  2121
STARLINK-36096          
1 66949U 25286AA  25347.58336806 -.01310244  52734-3 -29054-2 0  9990
2 66949  53.1566  46.3772 0000887  54.3746 260.0072 15.97322488  2124
STARLINK-36111          
1 66950U 25286AB  25347.58336806 -.01317936  53387-3 -28975-2 0  9993
2 66950  53.1566  46.3714 0000896  58.5295 258.6070 15.97478967  2122
STARLINK-35999          
1 66951U 25286AC  25347.58336806 -.01316590  53334-3 -28810-2 0  9999
2 66951  53.1566  46.3682 0000815  58.8059 259.7914 15.97563504  2120
STARLINK-36122          
1 66952U 25286AD  25347.58336806 -.01313099  52988-3 -28990-2 0  9994
2 66952  53.1567  46.3743 0000876  55.7828 260.0053 15.97402048  2121
HULIANWANG DIGUI-114    
1 66953U 25287A   25345.23875512  .00000028  00000+0  13584-4 0  9999
2 66953  86.4966 346.7027 0008550 209.4482 150.6197 13.68688345   322
HULIANWANG DIGUI-115    
1 66954U 25287B   25347.43161279  .00000040  00000+0  27325-4 0  9994
2 66954  86.4973 345.9064 0008615 201.8160 158.2634 13.68791624   622
HULIANWANG DIGUI-116    
1 66955U 25287C   25347.43124659  .00000039  00000+0  26516-4 0  9995
2 66955  86.4909 345.8981 0008039 196.0831 164.0075 13.68903032   621
HULIANWANG DIGUI-117    
1 66956U 25287D   25345.82292378  .00000033  00000+0  18811-4 0  9994
2 66956  86.4968 346.4938 0007284 195.1574 164.9368 13.69017640   403
