CCSDS_OMM_VERS = 2.0
CREATION_DATE  = 
ORIGINATOR     = 

OBJECT_NAME    = STARLINK-36110
OBJECT_ID      = 2025-286W
CENTER_NAME    = EARTH
REF_FRAME      = TEME
TIME_SYSTEM    = UTC
MEAN_ELEMENT_THEORY = SGP/SGP4

EPOCH          = 2025-12-13T14:00:03.000384
MEAN_MOTION    = 15.96991445
ECCENTRICITY   = .00009251
INCLINATION    = 53.1565
RA_OF_ASC_NODE = 46.3890
ARG_OF_PERICENTER = 60.8658
MEAN_ANOMALY   = 247.8395

EPHEMERIS_TYPE = 0
CLASSIFICATION_TYPE = U
NORAD_CAT_ID   = 66945
ELEMENT_SET_NO = 999
REV_AT_EPOCH   = 212
BSTAR          = -.29039926E-2
MEAN_MOTION_DOT = -.1286195E-1
MEAN_MOTION_DDOT = .50809257E-3

CCSDS_OMM_VERS = 2.0
CREATION_DATE  = 
ORIGINATOR     = 

OBJECT_NAME    = STARLINK-36115
OBJECT_ID      = 2025-286X
CENTER_NAME    = EARTH
REF_FRAME      = TEME
TIME_SYSTEM    = UTC
MEAN_ELEMENT_THEORY = SGP/SGP4

EPOCH          = 2025-12-13T14:00:03.000384
MEAN_MOTION    = 15.97073319
ECCENTRICITY   = .00008819
INCLINATION    = 53.1566
RA_OF_ASC_NODE = 46.3859
ARG_OF_PERICENTER = 57.4523
MEAN_ANOMALY   = 252.6435

EPHEMERIS_TYPE = 0
CLASSIFICATION_TYPE = U
NORAD_CAT_ID   = 66946
ELEMENT_SET_NO = 999
REV_AT_EPOCH   = 212
BSTAR          = -.29055508E-2
MEAN_MOTION_DOT = -.1292619E-1
MEAN_MOTION_DDOT = .51315946E-3

CCSDS_OMM_VERS = 2.0
CREATION_DATE  = 
ORIGINATOR     = 

OBJECT_NAME    = STARLINK-36089
OBJECT_ID      = 2025-286Y
CENTER_NAME    = EARTH
REF_FRAME      = TEME
TIME_SYSTEM    = UTC
MEAN_ELEMENT_THEORY = SGP/SGP4

EPOCH          = 2025-12-13T14:00:03.000384
MEAN_MOTION    = 15.97241517
ECCENTRICITY   = .00009892
INCLINATION    = 53.1565
RA_OF_ASC_NODE = 46.3799
ARG_OF_PERICENTER = 58.2349
MEAN_ANOMALY   = 254.8364

EPHEMERIS_TYPE = 0
CLASSIFICATION_TYPE = U
NORAD_CAT_ID   = 66947
ELEMENT_SET_NO = 999
REV_AT_EPOCH   = 212
BSTAR          = -.28897555E-2
MEAN_MOTION_DOT = -.1297534E-1
MEAN_MOTION_DDOT = .51762221E-3

CCSDS_OMM_VERS = 2.0
CREATION_DATE  = 
ORIGINATOR     = 

OBJECT_NAME    = STARLINK-36116
OBJECT_ID      = 2025-286Z
CENTER_NAME    = EARTH
REF_FRAME      = TEME
TIME_SYSTEM    = UTC
MEAN_ELEMENT_THEORY = SGP/SGP4

EPOCH          = 2025-12-13T14:00:03.000384
MEAN_MOTION    = 15.97168391
ECCENTRICITY   = .00008136
INCLINATION    = 53.1566
RA_OF_ASC_NODE = 46.3824
ARG_OF_PERICENTER = 63.5704
MEAN_ANOMALY   = 248.2177

EPHEMERIS_TYPE = 0
CLASSIFICATION_TYPE = U
NORAD_CAT_ID   = 66948
ELEMENT_SET_NO = 999
REV_AT_EPOCH   = 212
BSTAR          = -.28901237E-2
MEAN_MOTION_DOT = -.1292509E-1
MEAN_MOTION_DDOT = .51358649E-3

CCSDS_OMM_VERS = 2.0
CREATION_DATE  = 
ORIGINATOR     = 

OBJECT_NAME    = STARLINK-36096
OBJECT_ID      = 2025-286AA
CENTER_NAME    = EARTH
REF_FRAME      = TEME
TIME_SYSTEM    = UTC
MEAN_ELEMENT_THEORY = SGP/SGP4

EPOCH          = 2025-12-13T14:00:03.000384
MEAN_MOTION    = 15.97322488
ECCENTRICITY   = .00008878
INCLINATION    = 53.1566
RA_OF_ASC_NODE = 46.3772
ARG_OF_PERICENTER = 54.3746
MEAN_ANOMALY   = 260.0072

EPHEMERIS_TYPE = 0
CLASSIFICATION_TYPE = U
NORAD_CAT_ID   = 66949
ELEMENT_SET_NO = 999
REV_AT_EPOCH   = 212
BSTAR          = -.29054139E-2
MEAN_MOTION_DOT = -.1310244E-1
MEAN_MOTION_DDOT = .52734203E-3

CCSDS_OMM_VERS = 2.0
CREATION_DATE  = 
ORIGINATOR     = 

OBJECT_NAME    = STARLINK-36111
OBJECT_ID      = 2025-286AB
CENTER_NAME    = EARTH
REF_FRAME      = TEME
TIME_SYSTEM    = UTC
MEAN_ELEMENT_THEORY = SGP/SGP4

EPOCH          = 2025-12-13T14:00:03.000384
MEAN_MOTION    = 15.97478967
ECCENTRICITY   = .00008969
INCLINATION    = 53.1566
RA_OF_ASC_NODE = 46.3714
ARG_OF_PERICENTER = 58.5295
MEAN_ANOMALY   = 258.6070

EPHEMERIS_TYPE = 0
CLASSIFICATION_TYPE = U
NORAD_CAT_ID   = 66950
ELEMENT_SET_NO = 999
REV_AT_EPOCH   = 212
BSTAR          = -.28974752E-2
MEAN_MOTION_DOT = -.1317936E-1
MEAN_MOTION_DDOT = .53386695E-3

CCSDS_OMM_VERS = 2.0
CREATION_DATE  = 
ORIGINATOR     = 

OBJECT_NAME    = STARLINK-35999
OBJECT_ID      = 2025-286AC
CENTER_NAME    = EARTH
REF_FRAME      = TEME
TIME_SYSTEM    = UTC
MEAN_ELEMENT_THEORY = SGP/SGP4

EPOCH          = 2025-12-13T14:00:03.000384
MEAN_MOTION    = 15.97563504
ECCENTRICITY   = .00008158
INCLINATION    = 53.1566
RA_OF_ASC_NODE = 46.3682
ARG_OF_PERICENTER = 58.8059
MEAN_ANOMALY   = 259.7914

EPHEMERIS_TYPE = 0
CLASSIFICATION_TYPE = U
NORAD_CAT_ID   = 66951
ELEMENT_SET_NO = 999
REV_AT_EPOCH   = 212
BSTAR          = -.28809693E-2
MEAN_MOTION_DOT = -.131659E-1
MEAN_MOTION_DDOT = .53334354E-3

CCSDS_OMM_VERS = 2.0
CREATION_DATE  = 
ORIGINATOR     = 

OBJECT_NAME    = STARLINK-36122
OBJECT_ID      = 2025-286AD
CENTER_NAME    = EARTH
REF_FRAME      = TEME
TIME_SYSTEM    = UTC
MEAN_ELEMENT_THEORY = SGP/SGP4

EPOCH          = 2025-12-13T14:00:03.000384
MEAN_MOTION    = 15.97402048
ECCENTRICITY   = .00008766
INCLINATION    = 53.1567
RA_OF_ASC_NODE = 46.3743
ARG_OF_PERICENTER = 55.7828
MEAN_ANOMALY   = 260.0053

EPHEMERIS_TYPE = 0
CLASSIFICATION_TYPE = U
NORAD_CAT_ID   = 66952
ELEMENT_SET_NO = 999
REV_AT_EPOCH   = 212
BSTAR          = -.28990383E-2
MEAN_MOTION_DOT = -.1313099E-1
MEAN_MOTION_DDOT = .52987646E-3

CCSDS_OMM_VERS = 2.0
CREATION_DATE  = 
ORIGINATOR     = 

OBJECT_NAME    = HULIANWANG DIGUI-114
OBJECT_ID      = 2025-287A
CENTER_NAME    = EARTH
REF_FRAME      = TEME
TIME_SYSTEM    = UTC
MEAN_ELEMENT_THEORY = SGP/SGP4

EPOCH          = 2025-12-11T05:43:48.442368
MEAN_MOTION    = 13.68688345
ECCENTRICITY   = .00085506
INCLINATION    = 86.4966
RA_OF_ASC_NODE = 346.7027
ARG_OF_PERICENTER = 209.4482
MEAN_ANOMALY   = 150.6197

EPHEMERIS_TYPE = 0
CLASSIFICATION_TYPE = U
NORAD_CAT_ID   = 66953
ELEMENT_SET_NO = 999
REV_AT_EPOCH   = 32
BSTAR          = .13583638E-4
MEAN_MOTION_DOT = .28E-6
MEAN_MOTION_DDOT = 0

CCSDS_OMM_VERS = 2.0
CREATION_DATE  = 
ORIGINATOR     = 

OBJECT_NAME    = HULIANWANG DIGUI-115
OBJECT_ID      = 2025-287B
CENTER_NAME    = EARTH
REF_FRAME      = TEME
TIME_SYSTEM    = UTC
MEAN_ELEMENT_THEORY = SGP/SGP4

EPOCH          = 2025-12-13T10:21:31.345056
MEAN_MOTION    = 13.68791624
ECCENTRICITY   = .0008615
INCLINATION    = 86.4973
RA_OF_ASC_NODE = 345.9064
ARG_OF_PERICENTER = 201.8160
MEAN_ANOMALY   = 158.2634

EPHEMERIS_TYPE = 0
CLASSIFICATION_TYPE = U
NORAD_CAT_ID   = 66954
ELEMENT_SET_NO = 999
REV_AT_EPOCH   = 62
BSTAR          = .27325048E-4
MEAN_MOTION_DOT = .4E-6
MEAN_MOTION_DDOT = 0

CCSDS_OMM_VERS = 2.0
CREATION_DATE  = 
ORIGINATOR     = 

OBJECT_NAME    = HULIANWANG DIGUI-116
OBJECT_ID      = 2025-287C
CENTER_NAME    = EARTH
REF_FRAME      = TEME
TIME_SYSTEM    = UTC
MEAN_ELEMENT_THEORY = SGP/SGP4

EPOCH          = 2025-12-13T10:20:59.705376
MEAN_MOTION    = 13.68903032
ECCENTRICITY   = .00080398
INCLINATION    = 86.4909
RA_OF_ASC_NODE = 345.8981
ARG_OF_PERICENTER = 196.0831
MEAN_ANOMALY   = 164.0075

EPHEMERIS_TYPE = 0
CLASSIFICATION_TYPE = U
NORAD_CAT_ID   = 66955
ELEMENT_SET_NO = 999
REV_AT_EPOCH   = 62
BSTAR          = .26516237E-4
MEAN_MOTION_DOT = .39E-6
MEAN_MOTION_DDOT = 0

CCSDS_OMM_VERS = 2.0
CREATION_DATE  = 
ORIGINATOR     = 

OBJECT_NAME    = HULIANWANG DIGUI-117
OBJECT_ID      = 2025-287D
CENTER_NAME    = EARTH
REF_FRAME      = TEME
TIME_SYSTEM    = UTC
MEAN_ELEMENT_THEORY = SGP/SGP4

EPOCH          = 2025-12-11T19:45:00.614592
MEAN_MOTION    = 13.69017640
ECCENTRICITY   = .00072845
INCLINATION    = 86.4968
RA_OF_ASC_NODE = 346.4938
ARG_OF_PERICENTER = 195.1574
MEAN_ANOMALY   = 164.9368

EPHEMERIS_TYPE = 0
CLASSIFICATION_TYPE = U
NORAD_CAT_ID   = 66956
ELEMENT_SET_NO = 999
REV_AT_EPOCH   = 40
BSTAR          = .18810541E-4
MEAN_MOTION_DOT = .33E-6
MEAN_MOTION_DDOT = 0

